SPACEMOBILE-008         
1 69589U 26139A   26200.77741476  .00000320  00000+0  35001-4 0  9998
2 69589  52.9951 114.6038 0005225  67.5009 292.6535 15.12806260  4911
SPACEMOBILE-009         
1 69590U 26139B   26200.71362991  .00000276  00000+0  32618-4 0  9996
2 69590  52.9942 114.9119 0005496  63.0769 297.0783 15.12699537  4900
SPACEMOBILE-010         
1 69591U 26139C   26200.78330804  .00000934  00000+0  70004-4 0  9994
2 69591  52.9948 114.6376 0005492  56.1534 303.9979 15.12539455  4926
