OBJECT_NAME,OBJECT_ID,EPOCH,MEAN_MOTION,ECCENTRICITY,INCLINATION,RA_OF_ASC_NODE,ARG_OF_PERICENTER,MEAN_ANOMALY,EPHEMERIS_TYPE,CLASSIFICATION_TYPE,NORAD_CAT_ID,ELEMENT_SET_NO,REV_AT_EPOCH,BSTAR,MEAN_MOTION_DOT,MEAN_MOTION_DDOT
SPACEMOBILE-008,2026-139A,2026-07-19T18:39:28.635264,15.12806260,.0005225,52.9951,114.6038,67.5009,292.6535,0,U,69589,999,491,.35001E-4,.32E-5,0
SPACEMOBILE-009,2026-139B,2026-07-19T17:07:37.624224,15.12699537,.0005496,52.9942,114.9119,63.0769,297.0783,0,U,69590,999,490,.32618E-4,.276E-5,0
SPACEMOBILE-010,2026-139C,2026-07-19T18:47:57.814656,15.12539455,.0005492,52.9948,114.6376,56.1534,303.9979,0,U,69591,999,492,.70004E-4,.934E-5,0
